STARLINK-11119 [DTC]    
1 60121U 24118J   26177.86291645  .00016750  00000+0  14283-3 0  9999
2 60121  53.1577  42.8239 0000763  75.2270 284.8833 15.69709264115144
STARLINK-11157 [DTC]    
1 60122U 24118K   26177.86781815 -.00001316  00000+0 -60039-5 0  9999
2 60122  53.1592  42.8562 0000812  80.3495 279.7615 15.69714868115149
STARLINK-11162 [DTC]    
1 60123U 24118L   26177.92168262  .00035997  00000+0  30275-3 0  9999
2 60123  53.1593  42.4766 0002966 165.1256 194.9849 15.69541706115159
STARLINK-11161 [DTC]    
1 60124U 24118M   26177.91687326 -.00001214  00000+0 -51627-5 0  9999
2 60124  53.1582  43.1779 0000883  52.9002 307.2096 15.69713032115143
STARLINK-11160 [DTC]    
1 60125U 24118N   26177.93638970  .00002212  00000+0  23125-4 0  9991
2 60125  53.1596  42.5718 0000926  87.2284 272.8840 15.69690964115159
STARLINK-31846          
1 60126U 24118P   26177.58461309  .00000162  00000+0  16990-4 0  9997
2 60126  53.1595 240.5640 0001106  84.5184 275.5943 15.31706046112376
STARLINK-31840          
1 60127U 24118Q   26177.90620241 -.00000593  00000+0 -73471-5 0  9994
2 60127  53.1591 239.0184 0001096  76.8288 283.2836 15.31698414112428
STARLINK-31813          
1 60128U 24118R   26177.88286708 -.00001175  00000+0 -26106-4 0  9997
2 60128  53.1591 238.8727 0001174 100.0276 260.0858 15.31696038112420
STARLINK-31845          
1 60129U 24118S   26177.87585948 -.00001120  00000+0 -25709-4 0  9993
2 60129  53.1595 237.3979 0001141  94.8328 265.2803 15.30188797112446
STARLINK-31838          
1 60130U 24118T   26177.56595192  .00003563  00000+0  12664-3 0  9999
2 60130  53.1596 240.4450 0001402 101.3970 258.7189 15.31670601112372
STARLINK-31785          
1 60131U 24118U   26177.87819852 -.00000875  00000+0 -16428-4 0  9994
2 60131  53.1593 238.8397 0000993  93.6123 266.4992 15.31696245112424
STARLINK-31792          
1 60132U 24118V   26177.85896553 -.00000651  00000+0 -98599-5 0  9998
2 60132  53.1593 237.2531 0001119  84.0897 276.0231 15.30195183112440
STARLINK-32043          
1 60135U 24120A   26178.20677922 -.00000016  00000+0  10674-4 0  9992
2 60135  53.1606 170.5291 0001511 112.1821 247.9342 15.34390457113150
STARLINK-32112          
1 60136U 24120B   26178.20888307 -.00000639  00000+0 -77952-5 0  9999
2 60136  53.1601 170.5459 0001290 100.7574 259.3574 15.34388728113235
STARLINK-32050          
1 60137U 24120C   26178.19625727 -.00000239  00000+0  40483-5 0  9997
2 60137  53.1596 170.4667 0001234  89.4945 270.6199 15.34387413113152
STARLINK-32025          
1 60138U 24120D   26178.16890727 -.00000181  00000+0  57669-5 0  9999
2 60138  53.1586 170.2903 0001267  92.9885 267.1262 15.34376808113159
STARLINK-31694          
1 60140U 24120F   26178.21520186 -.00000657  00000+0 -83275-5 0  9998
2 60140  53.1602 170.5826 0001257  90.7545 269.3602 15.34381131113232
STARLINK-32036          
1 60141U 24120G   26178.22150853 -.00000406  00000+0 -89836-6 0  9992
2 60141  53.1594 170.6207 0001191  96.5711 263.5427 15.34385869113236
STARLINK-32031          
1 60142U 24120H   26178.16678227  .00002205  00000+0  76340-4 0  9997
2 60142  53.1611 170.2814 0001409  99.6295 260.4867 15.34411741113233
STARLINK-32027          
1 60143U 24120J   26178.23614476 -.00001522  00000+0 -33938-4 0  9991
2 60143  53.1586 169.9594 0001214  87.4429 272.6713 15.34381441113242
STARLINK-32033          
1 60144U 24120K   26178.22571657 -.00000205  00000+0  50845-5 0  9997
2 60144  53.1599 170.6492 0001344  96.6282 263.4874 15.34386143113156
STARLINK-32029          
1 60145U 24120L   26178.18152881 -.00000097  00000+0  82817-5 0  9990
2 60145  53.1592 170.3707 0001225  80.6177 279.4964 15.34382904113158
STARLINK-32127          
1 60146U 24120M   26178.24245669 -.00000303  00000+0  21553-5 0  9995
2 60146  53.1590 170.0412 0001355  85.9638 274.1519 15.34387225113161
STARLINK-32019          
1 60147U 24120N   26178.17943914  .00001530  00000+0  56444-4 0  9994
2 60147  53.1593 170.3580 0001351  92.5501 267.5656 15.34376008113157
STARLINK-32021          
1 60148U 24120P   26178.21804250  .00002698  00000+0  98590-4 0  9993
2 60148  53.1593 160.6450 0001158  82.9493 277.1640 15.31724726113379
STARLINK-32022          
1 60149U 24120Q   26178.20049081 -.00002590  00000+0 -65629-4 0  9996
2 60149  53.1600 170.4864 0001145  87.6754 272.4380 15.34367054113239
STARLINK-32014          
1 60150U 24120R   26178.21940367 -.00000241  00000+0  39862-5 0  9997
2 60150  53.1603 170.6032 0001087  97.7561 262.3565 15.34384259113156
STARLINK-32004          
1 60151U 24120S   26178.21309259 -.00000291  00000+0  25334-5 0  9991
2 60151  53.1608 170.5650 0001236  90.2239 269.8905 15.34383400113239
STARLINK-32147          
1 60152U 24120T   26178.20257139 -.00000075  00000+0  89362-5 0  9991
2 60152  53.1598 170.5032 0001478  90.9873 269.1299 15.34385747113157
STARLINK-32131          
1 60153U 24120U   26178.24034503 -.00003136  00000+0 -81679-4 0  9998
2 60153  53.1592 170.0262 0000540 356.6323   3.4676 15.34418760113243
