OBJECT_NAME,OBJECT_ID,EPOCH,MEAN_MOTION,ECCENTRICITY,INCLINATION,RA_OF_ASC_NODE,ARG_OF_PERICENTER,MEAN_ANOMALY,EPHEMERIS_TYPE,CLASSIFICATION_TYPE,NORAD_CAT_ID,ELEMENT_SET_NO,REV_AT_EPOCH,BSTAR,MEAN_MOTION_DOT,MEAN_MOTION_DDOT
STARLINK-11119 [DTC],2024-118J,2026-06-26T20:42:35.981280,15.69709264,.00007631,53.1577,42.8239,75.2270,284.8833,0,U,60121,999,11514,.14283178E-3,.1675E-3,0
STARLINK-11157 [DTC],2024-118K,2026-06-26T20:49:39.488160,15.69714868,.00008121,53.1592,42.8562,80.3495,279.7615,0,U,60122,999,11514,-.6003863E-5,-.1316E-4,0
STARLINK-11162 [DTC],2024-118L,2026-06-26T22:07:13.378368,15.69541706,.0002966,53.1593,42.4766,165.1256,194.9849,0,U,60123,999,11515,.30275E-3,.35997E-3,0
STARLINK-11161 [DTC],2024-118M,2026-06-26T22:00:17.849664,15.69713032,.0000883,53.1582,43.1779,52.9002,307.2096,0,U,60124,999,11514,-.51627E-5,-.1214E-4,0
STARLINK-11160 [DTC],2024-118N,2026-06-26T22:28:24.070080,15.69690964,.0000926,53.1596,42.5718,87.2284,272.8840,0,U,60125,999,11515,.23125E-4,.2212E-4,0
STARLINK-31846,2024-118P,2026-06-26T14:01:50.570976,15.31706046,.0001106,53.1595,240.5640,84.5184,275.5943,0,U,60126,999,11237,.1699E-4,.162E-5,0
STARLINK-31840,2024-118Q,2026-06-26T21:44:55.888224,15.31698414,.0001096,53.1591,239.0184,76.8288,283.2836,0,U,60127,999,11242,-.73471E-5,-.593E-5,0
STARLINK-31813,2024-118R,2026-06-26T21:11:19.715712,15.31696038,.0001174,53.1591,238.8727,100.0276,260.0858,0,U,60128,999,11242,-.26106E-4,-.1175E-4,0
STARLINK-31845,2024-118S,2026-06-26T21:01:14.259072,15.30188797,.0001141,53.1595,237.3979,94.8328,265.2803,0,U,60129,999,11244,-.25709E-4,-.112E-4,0
STARLINK-31838,2024-118T,2026-06-26T13:34:58.245888,15.31670601,.0001402,53.1596,240.4450,101.3970,258.7189,0,U,60130,999,11237,.12664E-3,.3563E-4,0
STARLINK-31785,2024-118U,2026-06-26T21:04:36.352128,15.31696245,.0000993,53.1593,238.8397,93.6123,266.4992,0,U,60131,999,11242,-.16428E-4,-.875E-5,0
STARLINK-31792,2024-118V,2026-06-26T20:36:54.621792,15.30195183,.00011196,53.1593,237.2531,84.0897,276.0231,0,U,60132,999,11244,-.9859882E-5,-.651E-5,0
STARLINK-32043,2024-120A,2026-06-27T04:57:45.724608,15.34390457,.0001511,53.1606,170.5291,112.1821,247.9342,0,U,60135,999,11315,.10674E-4,-.16E-6,0
STARLINK-32112,2024-120B,2026-06-27T05:00:47.497248,15.34388728,.000129,53.1601,170.5459,100.7574,259.3574,0,U,60136,999,11323,-.77952E-5,-.639E-5,0
STARLINK-32050,2024-120C,2026-06-27T04:42:36.628128,15.34387413,.0001234,53.1596,170.4667,89.4945,270.6199,0,U,60137,999,11315,.40483E-5,-.239E-5,0
STARLINK-32025,2024-120D,2026-06-27T04:03:13.588128,15.34376808,.0001267,53.1586,170.2903,92.9885,267.1262,0,U,60138,999,11315,.57669E-5,-.181E-5,0
STARLINK-31694,2024-120F,2026-06-27T05:09:53.440704,15.34381131,.0001257,53.1602,170.5826,90.7545,269.3602,0,U,60140,999,11323,-.83275E-5,-.657E-5,0
STARLINK-32036,2024-120G,2026-06-27T05:18:58.336992,15.34385869,.0001191,53.1594,170.6207,96.5711,263.5427,0,U,60141,999,11323,-.89836E-6,-.406E-5,0
STARLINK-32031,2024-120H,2026-06-27T04:00:09.988128,15.34411741,.0001409,53.1611,170.2814,99.6295,260.4867,0,U,60142,999,11323,.7634E-4,.2205E-4,0
STARLINK-32027,2024-120J,2026-06-27T05:40:02.907264,15.34381441,.0001214,53.1586,169.9594,87.4429,272.6713,0,U,60143,999,11324,-.33938E-4,-.1522E-4,0
STARLINK-32033,2024-120K,2026-06-27T05:25:01.911648,15.34386143,.0001344,53.1599,170.6492,96.6282,263.4874,0,U,60144,999,11315,.50845E-5,-.205E-5,0
STARLINK-32029,2024-120L,2026-06-27T04:21:24.089184,15.34382904,.0001225,53.1592,170.3707,80.6177,279.4964,0,U,60145,999,11315,.82817E-5,-.97E-6,0
STARLINK-32127,2024-120M,2026-06-27T05:49:08.258016,15.34387225,.0001355,53.1590,170.0412,85.9638,274.1519,0,U,60146,999,11316,.21553E-5,-.303E-5,0
STARLINK-32019,2024-120N,2026-06-27T04:18:23.541696,15.34376008,.0001351,53.1593,170.3580,92.5501,267.5656,0,U,60147,999,11315,.56444E-4,.153E-4,0
STARLINK-32021,2024-120P,2026-06-27T05:13:58.872000,15.31724726,.0001158,53.1593,160.6450,82.9493,277.1640,0,U,60148,999,11337,.9859E-4,.2698E-4,0
STARLINK-32022,2024-120Q,2026-06-27T04:48:42.405984,15.34367054,.0001145,53.1600,170.4864,87.6754,272.4380,0,U,60149,999,11323,-.65629E-4,-.259E-4,0
STARLINK-32014,2024-120R,2026-06-27T05:15:56.477088,15.34384259,.0001087,53.1603,170.6032,97.7561,262.3565,0,U,60150,999,11315,.39862E-5,-.241E-5,0
STARLINK-32004,2024-120S,2026-06-27T05:06:51.199776,15.34383400,.0001236,53.1608,170.5650,90.2239,269.8905,0,U,60151,999,11323,.25334E-5,-.291E-5,0
STARLINK-32147,2024-120T,2026-06-27T04:51:42.168096,15.34385747,.0001478,53.1598,170.5032,90.9873,269.1299,0,U,60152,999,11315,.89362E-5,-.75E-6,0
STARLINK-32131,2024-120U,2026-06-27T05:46:05.810592,15.34418760,.000054,53.1592,170.0262,356.6323,3.4676,0,U,60153,999,11324,-.81679E-4,-.3136E-4,0
